*******************************************************************************
Ephemeris / WWW_USER Mon Jul 15 19:15:42 2024 Pasadena, USA      / Horizons    
*******************************************************************************
Target body name: (2018 WV1)                      {source: JPL#17}
Center body name: Earth (399)                     {source: DE441}
Center-site name: Gemini South Obs., Cerro Pachon
*******************************************************************************
Start time      : A.D. 2018-Nov-27 23:36:00.0000 UT      
Stop  time      : A.D. 2018-Nov-28 09:25:00.0000 UT      
Step-size       : 1 minutes
*******************************************************************************
Target pole/equ : undefined
Target radii    : undefined                                                    
Center geodetic : 289.2634, -30.2406227, 2.71233  {E-lon(deg),Lat(deg),Alt(km)}
Center cylindric: 289.2634,5517.21435,-3194.81213 {E-lon(deg),Dxy(km),Dz(km)}
Center pole/equ : ITRF93                          {East-longitude positive}
Center radii    : 6378.137, 6378.137, 6356.752 km {Equator_a, b, pole_c}       
Target primary  : Sun
Vis. interferer : MOON (R_eq= 1737.400) km        {source: DE441}
Rel. light bend : Sun                             {source: DE441}
Rel. lght bnd GM: 1.3271E+11 km^3/s^2                                          
Small-body perts: Yes                             {source: SB441-N16}
Atmos refraction: NO (AIRLESS)
RA format       : HMS
Time format     : CAL 
Calendar mode   : Mixed Julian/Gregorian
RTS-only print  : NO       
EOP file        : eop.240715.p241008                                           
EOP coverage    : DATA-BASED 1962-JAN-20 TO 2024-JUL-15. PREDICTS-> 2024-OCT-07
Units conversion: 1 au= 149597870.700 km, c= 299792.458 km/s, 1 day= 86400.0 s 
Table cut-offs 1: Elevation (-90.0deg=NO ),Airmass (>38.000=NO), Daylight (YES)
Table cut-offs 2: Solar elongation (  0.0,180.0=NO ),Local Hour Angle( 0.0=NO )
Table cut-offs 3: RA/DEC angular rate (     0.0=NO )                           
*******************************************************************************
Initial IAU76/J2000 heliocentric ecliptic osculating elements (au, days, deg.):
  EPOCH=  2458458.5 ! 2018-Dec-06.00 (TDB)         Residual RMS= .12928        
   EC= .06869100257422787  QR= .9715505345748198   TP= 2458416.866413563       
   OM= 248.5061090469913   W=  141.3742304527303   IN= 1.905403987972275       
  Equivalent ICRF heliocentric cartesian coordinates (au, au/d):
   X= 2.787163119783287E-01  Y= 8.719775267121872E-01  Z= 3.748421051204766E-01
  VX=-1.676682657337402E-02 VY= 5.516972965834891E-03 VZ= 1.749720915605096E-03
Asteroid physical parameters (km, seconds, rotational period in hours):        
   GM= n.a.                RAD= n.a.               ROTPER= n.a.                
   H= 30.3                 G= .150                 B-V= n.a.                   
                           ALBEDO= n.a.            STYP= n.a.                  
*******************************************************************************
 Date__(UT)__HR:MN     R.A._________(ICRF)_________DEC
******************************************************
$$SOE
 2018-Nov-28 05:45  m  01 07 01.812529 +24 09 12.25192
 2018-Nov-28 05:46  m  01 07 01.338859 +24 09 10.96456
 2018-Nov-28 05:47  m  01 07 00.866989 +24 09 09.67196
 2018-Nov-28 05:48  m  01 07 00.396923 +24 09 08.37418
 2018-Nov-28 05:49  m  01 06 59.928666 +24 09 07.07125
 2018-Nov-28 05:50  m  01 06 59.462223 +24 09 05.76324
 2018-Nov-28 05:51  m  01 06 58.997598 +24 09 04.45017
 2018-Nov-28 05:52  m  01 06 58.534795 +24 09 03.13210
 2018-Nov-28 05:53  m  01 06 58.073818 +24 09 01.80909
 2018-Nov-28 05:54  m  01 06 57.614673 +24 09 00.48116
 2018-Nov-28 05:55  m  01 06 57.157362 +24 08 59.14838
 2018-Nov-28 05:56  m  01 06 56.701890 +24 08 57.81078
 2018-Nov-28 05:57  m  01 06 56.248262 +24 08 56.46842
 2018-Nov-28 05:58  m  01 06 55.796481 +24 08 55.12135
 2018-Nov-28 05:59  m  01 06 55.346551 +24 08 53.76961
 2018-Nov-28 06:00  m  01 06 54.898477 +24 08 52.41324
 2018-Nov-28 06:01  m  01 06 54.452263 +24 08 51.05230
 2018-Nov-28 06:02  m  01 06 54.007912 +24 08 49.68684
 2018-Nov-28 06:03  m  01 06 53.565429 +24 08 48.31690
 2018-Nov-28 06:04  m  01 06 53.124817 +24 08 46.94253
 2018-Nov-28 06:05  m  01 06 52.686080 +24 08 45.56378
 2018-Nov-28 06:06  m  01 06 52.249222 +24 08 44.18070
 2018-Nov-28 06:07  m  01 06 51.814247 +24 08 42.79334
 2018-Nov-28 06:08  m  01 06 51.381159 +24 08 41.40174
 2018-Nov-28 06:09  m  01 06 50.949960 +24 08 40.00595
 2018-Nov-28 06:10  m  01 06 50.520656 +24 08 38.60603
 2018-Nov-28 06:11  m  01 06 50.093249 +24 08 37.20201
 2018-Nov-28 06:12  m  01 06 49.667743 +24 08 35.79396
 2018-Nov-28 06:13  m  01 06 49.244142 +24 08 34.38192
 2018-Nov-28 06:14  m  01 06 48.822449 +24 08 32.96593
 2018-Nov-28 06:15  m  01 06 48.402668 +24 08 31.54605
 2018-Nov-28 06:16  m  01 06 47.984802 +24 08 30.12233
 2018-Nov-28 06:17  m  01 06 47.568854 +24 08 28.69481
 2018-Nov-28 06:18  m  01 06 47.154828 +24 08 27.26355
 2018-Nov-28 06:19  m  01 06 46.742727 +24 08 25.82859
 2018-Nov-28 06:20  m  01 06 46.332555 +24 08 24.38999
 2018-Nov-28 06:21  m  01 06 45.924314 +24 08 22.94779
 2018-Nov-28 06:22  m  01 06 45.518008 +24 08 21.50204
 2018-Nov-28 06:23  m  01 06 45.113640 +24 08 20.05280
 2018-Nov-28 06:24  m  01 06 44.711214 +24 08 18.60011
 2018-Nov-28 06:25  m  01 06 44.310731 +24 08 17.14403
 2018-Nov-28 06:26  m  01 06 43.912196 +24 08 15.68459
 2018-Nov-28 06:27  m  01 06 43.515611 +24 08 14.22187
 2018-Nov-28 06:28  m  01 06 43.120979 +24 08 12.75589
 2018-Nov-28 06:29  m  01 06 42.728304 +24 08 11.28672
 2018-Nov-28 06:30  m  01 06 42.337588 +24 08 09.81440
 2018-Nov-28 06:31  m  01 06 41.948833 +24 08 08.33899
 2018-Nov-28 06:32  m  01 06 41.562044 +24 08 06.86054
 2018-Nov-28 06:33  m  01 06 41.177221 +24 08 05.37909
 2018-Nov-28 06:34  s  01 06 40.794369 +24 08 03.89469
 2018-Nov-28 06:35  m  01 06 40.413490 +24 08 02.40741
 2018-Nov-28 06:36  m  01 06 40.034587 +24 08 00.91728
 2018-Nov-28 06:37  m  01 06 39.657662 +24 07 59.42436
 2018-Nov-28 06:38  m  01 06 39.282717 +24 07 57.92870
 2018-Nov-28 06:39  m  01 06 38.909756 +24 07 56.43035
 2018-Nov-28 06:40  m  01 06 38.538781 +24 07 54.92937
 2018-Nov-28 06:41  m  01 06 38.169794 +24 07 53.42579
 2018-Nov-28 06:42  m  01 06 37.802797 +24 07 51.91968
 2018-Nov-28 06:43  m  01 06 37.437794 +24 07 50.41109
 2018-Nov-28 06:44  m  01 06 37.074786 +24 07 48.90006
 2018-Nov-28 06:45  m  01 06 36.713776 +24 07 47.38665
 2018-Nov-28 06:46  m  01 06 36.354765 +24 07 45.87090
 2018-Nov-28 06:47  m  01 06 35.997757 +24 07 44.35288
 2018-Nov-28 06:48  m  01 06 35.642753 +24 07 42.83263
 2018-Nov-28 06:49  m  01 06 35.289756 +24 07 41.31021
 2018-Nov-28 06:50  m  01 06 34.938767 +24 07 39.78566
 2018-Nov-28 06:51  m  01 06 34.589788 +24 07 38.25903
 2018-Nov-28 06:52  m  01 06 34.242823 +24 07 36.73039
 2018-Nov-28 06:53  m  01 06 33.897872 +24 07 35.19977
 2018-Nov-28 06:54  m  01 06 33.554937 +24 07 33.66723
 2018-Nov-28 06:55  m  01 06 33.214021 +24 07 32.13283
 2018-Nov-28 06:56  m  01 06 32.875125 +24 07 30.59662
 2018-Nov-28 06:57  m  01 06 32.538251 +24 07 29.05864
 2018-Nov-28 06:58  m  01 06 32.203401 +24 07 27.51895
 2018-Nov-28 06:59  m  01 06 31.870576 +24 07 25.97761
 2018-Nov-28 07:00  m  01 06 31.539779 +24 07 24.43465
 2018-Nov-28 07:01  m  01 06 31.211011 +24 07 22.89014
 2018-Nov-28 07:02  m  01 06 30.884273 +24 07 21.34413
 2018-Nov-28 07:03  m  01 06 30.559568 +24 07 19.79667
 2018-Nov-28 07:04  m  01 06 30.236896 +24 07 18.24781
 2018-Nov-28 07:05  m  01 06 29.916259 +24 07 16.69761
 2018-Nov-28 07:06  m  01 06 29.597658 +24 07 15.14611
 2018-Nov-28 07:07  m  01 06 29.281096 +24 07 13.59337
 2018-Nov-28 07:08  m  01 06 28.966573 +24 07 12.03944
 2018-Nov-28 07:09  m  01 06 28.654090 +24 07 10.48438
 2018-Nov-28 07:10  m  01 06 28.343650 +24 07 08.92823
 2018-Nov-28 07:11  m  01 06 28.035252 +24 07 07.37105
 2018-Nov-28 07:12  m  01 06 27.728899 +24 07 05.81289
 2018-Nov-28 07:13  m  01 06 27.424592 +24 07 04.25380
 2018-Nov-28 07:14  m  01 06 27.122331 +24 07 02.69384
 2018-Nov-28 07:15  m  01 06 26.822118 +24 07 01.13306
 2018-Nov-28 07:16  m  01 06 26.523953 +24 06 59.57150
 2018-Nov-28 07:17  m  01 06 26.227839 +24 06 58.00923
 2018-Nov-28 07:18  m  01 06 25.933775 +24 06 56.44630
 2018-Nov-28 07:19  m  01 06 25.641763 +24 06 54.88276
 2018-Nov-28 07:20  m  01 06 25.351803 +24 06 53.31865
 2018-Nov-28 07:21  m  01 06 25.063897 +24 06 51.75404
 2018-Nov-28 07:22  m  01 06 24.778044 +24 06 50.18898
 2018-Nov-28 07:23  m  01 06 24.494247 +24 06 48.62352
 2018-Nov-28 07:24  m  01 06 24.212505 +24 06 47.05770
 2018-Nov-28 07:25  m  01 06 23.932820 +24 06 45.49160
 2018-Nov-28 07:26  m  01 06 23.655191 +24 06 43.92525
 2018-Nov-28 07:27  m  01 06 23.379620 +24 06 42.35871
 2018-Nov-28 07:28  m  01 06 23.106107 +24 06 40.79203
 2018-Nov-28 07:29  m  01 06 22.834653 +24 06 39.22527
 2018-Nov-28 07:30  m  01 06 22.565257 +24 06 37.65848
 2018-Nov-28 07:31  m  01 06 22.297921 +24 06 36.09171
 2018-Nov-28 07:32  m  01 06 22.032644 +24 06 34.52501
 2018-Nov-28 07:33  m  01 06 21.769428 +24 06 32.95844
 2018-Nov-28 07:34  m  01 06 21.508273 +24 06 31.39206
 2018-Nov-28 07:35  m  01 06 21.249177 +24 06 29.82590
 2018-Nov-28 07:36  m  01 06 20.992143 +24 06 28.26003
 2018-Nov-28 07:37  m  01 06 20.737170 +24 06 26.69450
 2018-Nov-28 07:38  m  01 06 20.484258 +24 06 25.12935
 2018-Nov-28 07:39  m  01 06 20.233408 +24 06 23.56466
 2018-Nov-28 07:40  m  01 06 19.984619 +24 06 22.00046
 2018-Nov-28 07:41  m  01 06 19.737891 +24 06 20.43681
 2018-Nov-28 07:42  m  01 06 19.493224 +24 06 18.87376
 2018-Nov-28 07:43  m  01 06 19.250619 +24 06 17.31137
 2018-Nov-28 07:44  m  01 06 19.010075 +24 06 15.74969
 2018-Nov-28 07:45  m  01 06 18.771592 +24 06 14.18876
 2018-Nov-28 07:46  m  01 06 18.535170 +24 06 12.62865
 2018-Nov-28 07:47  m  01 06 18.300809 +24 06 11.06941
